XW-2F
1 40910U 15049M   16245.79459463  .00002545  00000-0  14176-3 0  9996
2 40910  97.4537 251.3564 0017453 126.2404 234.0444 15.14384370 52493
XW-2B
1 40911U 15049N   16245.78650610  .00001639  00000-0  94096-4 0  9996
2 40911  97.4562 251.2935 0016241 127.4420 232.8292 15.13822514 52491
DCBB
1 40912U 15049P   16245.77844557  .00001733  00000-0  92459-4 0  9997
2 40912  97.4535 252.3368 0017689 120.9572 324.7178 15.16351508 52562
TW-1C
1 40926U 15051B   16245.70260046  .00007559  00000-0  20617-3 0  9991
2 40926  97.2689 281.8179 0015358 129.4102  11.3574 15.37613180 52510
TW-1A
1 40928U 15051D   16245.74970071  .00003112  00000-0  97296-4 0  9992
2 40928  97.2646 280.5799 0014874 146.3341 306.0457 15.33794058 52451
IO-86
1 40931U 15052B   16242.64054917  .00000642  00000-0  30847-6 0  9991
2 40931   5.9998 151.5500 0013712  78.4014 281.7652 14.76475153 49809
GomX-3
1 40949U 98067HA  16245.75338751  .00214281  28234-4  64562-3 0  9990
2 40949  51.6275 355.0458 0003279 329.7532  30.3285 15.91795445 52206
LQSat
1 40958U 15057A   16245.80615932  .00000051  00000-0  15770-4 0  9996
2 40958  98.0097 319.6735 0016966 270.0251  89.9003 14.72892276 48661
AO-85
1 40967U 15058D   16244.37814442  .00000719  00000-0  96912-4 0 02413
2 40967 064.7779 017.8264 0195021 181.3393 178.7213 14.75114746034367
ATHENOXAT-1
1 41168U 15077C   16245.71750134  .00002720  00000-0  12167-3 0  9997
2 41168  14.9891 114.9492 0012102 341.5359  62.1093 15.10277747 39341
ChubuSat-2
1 41338U 16012B   16244.94323741  .00000717  00000-0  50246-4 0  9995
2 41338 031.0028 148.9256 0013835 076.9023 283.3155 14.99463370029539
ChubuSat-3
1 41339U 16012C   16245.77805508  .00000521  00000-0  34369-4 0  9995
2 41339  31.0099 143.2581 0013394  92.0010 268.2189 14.99689709 29638
Horyu-4
1 41340U 16012D   16245.79407783  .00001233  00000-0  89634-4 0  9998
2 41340  31.0047 142.3461 0014137  97.1636 263.0607 15.00147739 29662
OUFTI-1
1 41458U 16025C   16244.93321674  .00003038  00000-0  17211-3 0  9997
2 41458 098.2035 259.7455 0177732 174.8500 185.4606 15.01433446019157
e-st at r-II
1 41459U 16025D   16245.73392507  .00003150  00000-0  17838-3 0  9990
2 41459  98.2035 260.5863 0177837 172.2238 188.1811 15.01399860 19268
AAUSAT4
1 41460U 16025E   16245.71828237  .00003193  00000-0  18071-3 0  9991
2 41460  98.2105 260.6116 0175152 171.5550 188.8698 15.01750723 19266
MinXSS
1 41474U 98067HU  16245.78819342  .00045194  00000-0  53643-3 0  9997
2 41474  51.6426  33.2025 0001570  69.1960 290.9202 15.60723240 16882
CADRE
1 41475U 98067HV  16245.82758830  .00087354  00000-0  91161-3 0  9998
2 41475  51.6399  31.9513 0000042 210.7905 149.3087 15.63761694 16904
NODES 1
1 41477U 98067HX  16245.77199753  .00034988  00000-0  44009-3 0  9991
2 41477  51.6404  33.8338 0001439  52.9740 307.1384 15.59318977 16780
NODES 2
1 41478U 98067HY  16245.77459533  .00034942  00000-0  44048-3 0  9990
2 41478  51.6401  33.8500 0001363  53.7463 306.3655 15.59261200 16784
NuSat1-LUSEX
1 41557U 16033B   16245.85397326  .00002061  00000-0  83740-4 0  9991
2 41557  97.4932 319.1457 0013713 308.4773 143.9311 15.25656602 14448
NuSat2
1 41558U 16033C   16245.80510205  .00002044  00000-0  83440-4 0  9998
2 41558  97.4955 319.1048 0012984 307.0711 189.3144 15.25515658 14438
Lapan A3
1 41603U 16040E   16245.82228735  .00000418  00000-0  23187-4 0  9998
2 41603  97.5049 304.5404 0014075   6.6418  84.9975 15.19104629 10878
Swayam
1 41607U 16040J   16245.80612384  .00003734  00000-0  17999-3 0  9994
2 41607  97.5023 304.4996 0015002   9.8554 350.2972 15.19249766 10795
